[{"OBJECT_NAME":"STARLINK-3059","OBJECT_ID":"2021-082BD","EPOCH":"2026-03-09T22:26:33.514368","MEAN_MOTION":14.98326436,"ECCENTRICITY":0.00023522,"INCLINATION":69.9989,"RA_OF_ASC_NODE":293.8388,"ARG_OF_PERICENTER":266.3981,"MEAN_ANOMALY":93.6909,"EPHEMERIS_TYPE":0,"CLASSIFICATION_TYPE":"U","NORAD_CAT_ID":49181,"ELEMENT_SET_NO":999,"REV_AT_EPOCH":24720,"BSTAR":-0.00010428634,"MEAN_MOTION_DOT":-1.337e-5,"MEAN_MOTION_DDOT":0},{"OBJECT_NAME":"FENGYUN 1C DEB","OBJECT_ID":"1999-025BBA","EPOCH":"2026-03-08T04:01:46.595424","MEAN_MOTION":14.68382206,"ECCENTRICITY":0.01906782,"INCLINATION":99.0027,"RA_OF_ASC_NODE":196.6188,"ARG_OF_PERICENTER":258.0888,"MEAN_ANOMALY":99.8879,"EPHEMERIS_TYPE":0,"CLASSIFICATION_TYPE":"U","NORAD_CAT_ID":30960,"ELEMENT_SET_NO":999,"REV_AT_EPOCH":99951,"BSTAR":0.0022197351,"MEAN_MOTION_DOT":0.00016894,"MEAN_MOTION_DDOT":0}]
